CTC1_L_00443016-03
1 10062U 24952ZO  26075.70034722  .00000000  00000+0  00000-0 0  9995
2 10062  55.0000 180.0000 0000000   0.0000   0.0000 12.41559304    15
CTC1_L_00443016-04
1 10063U 26892FQ  26075.70034722  .00000000  00000+0  00000-0 0  9991
2 10063  55.0000 180.0000 0000000   0.0000  90.0000 12.41559304    15
CTC1_L_00443017-01
1 10064U 22309YN  26075.70034722  .00000000  00000+0  00000-0 0  9991
2 10064  55.0000 192.0000 0000000   0.0000 192.0000 12.41559304    12
CTC1_L_00443017-02
1 10065U 25190VS  26075.70034722  .00000000  00000+0  00000-0 0  9993
2 10065  55.0000 192.0000 0000000   0.0000 282.0000 12.41559304    13
CTC1_L_00443017-03
1 10066U 22824AP  26075.70034722  .00000000  00000+0  00000-0 0  9995
2 10066  55.0000 192.0000 0000000   0.0000  12.0000 12.41559304    15
CTC1_L_00443017-04
1 10067U 26641XL  26075.70034722  .00000000  00000+0  00000-0 0  9997
2 10067  55.0000 192.0000 0000000   0.0000 102.0000 12.41559304    16
CTC1_L_00443018-01
1 10068U 25683IR  26075.70034722  .00000000  00000+0  00000-0 0  9993
2 10068  55.0000 204.0000 0000000   0.0000 204.0000 12.41559304    14
CTC1_L_00443018-02
1 10069U 22885J   26075.70034722  .00000000  00000+0  00000-0 0  9995
2 10069  55.0000 204.0000 0000000   0.0000 294.0000 12.41559304    14
CTC1_L_00443018-03
1 10070U 25193DC  26075.70034722  .00000000  00000+0  00000-0 0  9992
2 10070  55.0000 204.0000 0000000   0.0000  24.0000 12.41559304    17
CTC1_L_00443018-04
1 10071U 26619MJ  26075.70034722  .00000000  00000+0  00000-0 0  9997
2 10071  55.0000 204.0000 0000000   0.0000 114.0000 12.41559304    18
CTC1_L_00443019-01
1 10072U 24323QU  26075.70034722  .00000000  00000+0  00000-0 0  9998
2 10072  55.0000 216.0000 0000000   0.0000 216.0000 12.41559304    15
CTC1_L_00443019-02
1 10073U 25893AI  26075.70034722  .00000000  00000+0  00000-0 0  9992
2 10073  55.0000 216.0000 0000000   0.0000 306.0000 12.41559304    16
CTC1_L_00443019-03
1 10074U 23400WD  26075.70034722  .00000000  00000+0  00000-0 0  9995
2 10074  55.0000 216.0000 0000000   0.0000  36.0000 12.41559304    17
CTC1_L_00443019-04
1 10075U 25265KJ  26075.70034722  .00000000  00000+0  00000-0 0  9997
2 10075  55.0000 216.0000 0000000   0.0000 126.0000 12.41559304    18
CTC1_L_00443020-01
1 10076U 22610XF  26075.70034722  .00000000  00000+0  00000-0 0  9999
2 10076  55.0000 228.0000 0000000   0.0000 228.0000 12.41559304    15
CTC1_L_00443020-02
1 10077U 24451ID  26075.70034722  .00000000  00000+0  00000-0 0  9995
2 10077  55.0000 228.0000 0000000   0.0000 318.0000 12.41559304    16
CTC1_L_00443020-03
1 10078U 25788IV  26075.70034722  .00000000  00000+0  00000-0 0  9990
2 10078  55.0000 228.0000 0000000   0.0000  48.0000 12.41559304    17
CTC1_L_00443020-04
1 10079U 22243UJ  26075.70034722  .00000000  00000+0  00000-0 0  9994
2 10079  55.0000 228.0000 0000000   0.0000 138.0000 12.41559304    18
CTC1_L_00443021-01
1 10080U 23930JF  26075.70034722  .00000000  00000+0  00000-0 0  9990
2 10080  55.0000 240.0000 0000000   0.0000 240.0000 12.41559304    18
CTC1_L_00443021-02
1 10081U 24556DX  26075.70034722  .00000000  00000+0  00000-0 0  9996
2 10081  55.0000 240.0000 0000000   0.0000 330.0000 12.41559304    19
CTC1_L_00443021-03
1 10082U 25550PZ  26075.70034722  .00000000  00000+0  00000-0 0  9992
2 10082  55.0000 240.0000 0000000   0.0000  60.0000 12.41559304    10
CTC1_L_00443021-04
1 10083U 24700ZK  26075.70034722  .00000000  00000+0  00000-0 0  9999
2 10083  55.0000 240.0000 0000000   0.0000 150.0000 12.41559304    11
CTC1_L_00443022-01
1 10084U 26856UG  26075.70034722  .00000000  00000+0  00000-0 0  9994
2 10084  55.0000 252.0000 0000000   0.0000 252.0000 12.41559304    18
CTC1_L_00443022-02
1 10085U 24250VO  26075.70034722  .00000000  00000+0  00000-0 0  9991
2 10085  55.0000 252.0000 0000000   0.0000 342.0000 12.41559304    19
CTC1_L_00443022-03
1 10086U 24273AK  26075.70034722  .00000000  00000+0  00000-0 0  9997
2 10086  55.0000 252.0000 0000000   0.0000  72.0000 12.41559304    10
CTC1_L_00443022-04
1 10087U 24032YB  26075.70034722  .00000000  00000+0  00000-0 0  9991
2 10087  55.0000 252.0000 0000000   0.0000 162.0000 12.41559304    11
CTC1_L_00443023-01
1 10088U 23178VR  26075.70034722  .00000000  00000+0  00000-0 0  9992
2 10088  55.0000 264.0000 0000000   0.0000 264.0000 12.41559304    18
CTC1_L_00443023-02
1 10089U 24962NR  26075.70034722  .00000000  00000+0  00000-0 0  9995
2 10089  55.0000 264.0000 0000000   0.0000 354.0000 12.41559304    19
CTC1_L_00443023-03
1 10090U 25990RS  26075.70034722  .00000000  00000+0  00000-0 0  9999
2 10090  55.0000 264.0000 0000000   0.0000  84.0000 12.41559304    11
CTC1_L_00443023-04
1 10091U 23643VA  26075.70034722  .00000000  00000+0  00000-0 0  9993
2 10091  55.0000 264.0000 0000000   0.0000 174.0000 12.41559304    12
CTC1_L_00443024-01
1 10092U 22540FO  26075.70034722  .00000000  00000+0  00000-0 0  9999
2 10092  55.0000 276.0000 0000000   0.0000 276.0000 12.41559304    19
CTC1_L_00443024-02
1 10093U 23518LY  26075.70034722  .00000000  00000+0  00000-0 0  9996
2 10093  55.0000 276.0000 0000000   0.0000   6.0000 12.41559304    11
CTC1_L_00443024-03
1 10094U 26449UX  26075.70034722  .00000000  00000+0  00000-0 0  9993
2 10094  55.0000 276.0000 0000000   0.0000  96.0000 12.41559304    11
CTC1_L_00443024-04
1 10095U 22443BG  26075.70034722  .00000000  00000+0  00000-0 0  9994
2 10095  55.0000 276.0000 0000000   0.0000 186.0000 12.41559304    12
CTC1_L_00443025-01
1 10096U 26547EE  26075.70034722  .00000000  00000+0  00000-0 0  9994
2 10096  55.0000 288.0000 0000000   0.0000 288.0000 12.41559304    19
CTC1_L_00443025-02
1 10097U 23743SI  26075.70034722  .00000000  00000+0  00000-0 0  9990
2 10097  55.0000 288.0000 0000000   0.0000  18.0000 12.41559304    11
CTC1_L_00443025-03
1 10098U 24657EZ  26075.70034722  .00000000  00000+0  00000-0 0  9996
2 10098  55.0000 288.0000 0000000   0.0000 108.0000 12.41559304    12
CTC1_L_00443025-04
1 10099U 24664JC  26075.70034722  .00000000  00000+0  00000-0 0  9995
2 10099  55.0000 288.0000 0000000   0.0000 198.0000 12.41559304    12
CTC1_L_00443026-01
1 10100U 26251YI  26075.70034722  .00000000  00000+0  00000-0 0  9992
2 10100  55.0000 300.0000 0000000   0.0000 300.0000 12.41559304    15
CTC1_L_00443026-02
1 10101U 26554WX  26075.70034722  .00000000  00000+0  00000-0 0  9999
2 10101  55.0000 300.0000 0000000   0.0000  30.0000 12.41559304    16
CTC1_L_00443026-03
1 10102U 22283RD  26075.70034722  .00000000  00000+0  00000-0 0  9995
2 10102  55.0000 300.0000 0000000   0.0000 120.0000 12.41559304    17
CTC1_L_00443026-04
1 10103U 22949XT  26075.70034722  .00000000  00000+0  00000-0 0  9995
2 10103  55.0000 300.0000 0000000   0.0000 210.0000 12.41559304    18
CTC1_L_00443027-01
1 10104U 22298SB  26075.70034722  .00000000  00000+0  00000-0 0  9993
2 10104  55.0000 312.0000 0000000   0.0000 312.0000 12.41559304    15
CTC1_L_00443027-02
1 10105U 23318LP  26075.70034722  .00000000  00000+0  00000-0 0  9998
2 10105  55.0000 312.0000 0000000   0.0000  42.0000 12.41559304    16
CTC1_L_00443027-03
1 10106U 25099KL  26075.70034722  .00000000  00000+0  00000-0 0  9997
2 10106  55.0000 312.0000 0000000   0.0000 132.0000 12.41559304    17
CTC1_L_00443027-04
1 10107U 26753OA  26075.70034722  .00000000  00000+0  00000-0 0  9996
2 10107  55.0000 312.0000 0000000   0.0000 222.0000 12.41559304    18
CTC1_L_00443028-01
1 10108U 23709BE  26075.70034722  .00000000  00000+0  00000-0 0  9995
2 10108  55.0000 324.0000 0000000   0.0000 324.0000 12.41559304    15
CTC1_L_00443028-02
1 10109U 26210DX  26075.70034722  .00000000  00000+0  00000-0 0  9996
2 10109  55.0000 324.0000 0000000   0.0000  54.0000 12.41559304    16
CTC1_L_00443028-03
1 10110U 23722FL  26075.70034722  .00000000  00000+0  00000-0 0  9993
2 10110  55.0000 324.0000 0000000   0.0000 144.0000 12.41559304    18
CTC1_L_00443028-04
1 10111U 22214I   26075.70034722  .00000000  00000+0  00000-0 0  9999
2 10111  55.0000 324.0000 0000000   0.0000 234.0000 12.41559304    19
CTC1_L_00443029-01
1 10112U 22221FX  26075.70034722  .00000000  00000+0  00000-0 0  9998
2 10112  55.0000 336.0000 0000000   0.0000 336.0000 12.41559304    16
CTC1_L_00443029-02
1 10113U 22731AC  26075.70034722  .00000000  00000+0  00000-0 0  9995
2 10113  55.0000 336.0000 0000000   0.0000  66.0000 12.41559304    17
CTC1_L_00443029-03
1 10114U 24458LL  26075.70034722  .00000000  00000+0  00000-0 0  9994
2 10114  55.0000 336.0000 0000000   0.0000 156.0000 12.41559304    18
CTC1_L_00443029-04
1 10115U 24563ZN  26075.70034722  .00000000  00000+0  00000-0 0  9992
2 10115  55.0000 336.0000 0000000   0.0000 246.0000 12.41559304    19
CTC1_L_00443030-01
1 10116U 26803LS  26075.70034722  .00000000  00000+0  00000-0 0  9992
2 10116  55.0000 348.0000 0000000   0.0000 348.0000 12.41559304    16
CTC1_L_00443030-02
1 10117U 23069GK  26075.70034722  .00000000  00000+0  00000-0 0  9994
2 10117  55.0000 348.0000 0000000   0.0000  78.0000 12.41559304    17
CTC1_L_00443030-03
1 10118U 23926OF  26075.70034722  .00000000  00000+0  00000-0 0  9997
2 10118  55.0000 348.0000 0000000   0.0000 168.0000 12.41559304    18
CTC1_L_00443030-04
1 10119U 25406HL  26075.70034722  .00000000  00000+0  00000-0 0  9993
2 10119  55.0000 348.0000 0000000   0.0000 258.0000 12.41559304    19
